GLOBALSTAR M067         
1 32263U 07048A   25269.68473303 -.00000070  00000+0  20509-3 0  9999
2 32263  51.9712  98.9393 0001080 149.7342 287.3777 12.40678708822087
GLOBALSTAR M070         
1 32264U 07048B   25269.51036286 -.00000058  00000+0  25593-3 0  9991
2 32264  51.9742 179.8304 0000784  52.2115 118.4197 12.62322898826464
GLOBALSTAR M066         
1 32265U 07048C   25269.97086157 -.00000096  00000+0 -15670-4 0  9993
2 32265  51.9583  93.5252 0004240 201.8614 315.8020 12.30377532827828
GLOBALSTAR M068         
1 32266U 07048D   25269.72257770 -.00000046  00000+0  31893-3 0  9996
2 32266  51.9915 352.7420 0000989  30.8610 137.6145 12.62828889830381
GLOBALSTAR M079         
1 37188U 10054A   25269.55678881 -.00000063  00000+0  22525-3 0  9997
2 37188  52.0030 191.2013 0000679  88.1214  83.6992 12.62267045689254
GLOBALSTAR M074         
1 37189U 10054B   25269.95892081 -.00000066  00000+0  20905-3 0  9995
2 37189  52.0009 189.2846 0000506  65.1347  14.1516 12.62271569689913
GLOBALSTAR M076         
1 37190U 10054C   25269.81760707 -.00000077  00000+0  14750-3 0  9994
2 37190  52.0022 189.8953 0000428  93.5506 302.9096 12.62265537689616
GLOBALSTAR M077         
1 37191U 10054D   25261.11398905 -.00000105  00000+0 -68518-5 0  9993
2 37191  52.0064 173.2575 0000611  67.5371  70.5425 12.62323380688888
